[
    {
        "Altitude(m)": 622200.1372867214,
        "Argument of Periapsis(deg)": 0.0,
        "Eccentricity": 0.0,
        "Inclination(deg)": 60.0,
        "Latitude(deg)": -52.16262126422278,
        "Longitude(deg)": -32.63913639358203,
        "Mean Anomaly(deg)": -65.45449999999995,
        "RAAN(deg)": 114.99999999999999,
        "Satellite Name": "Test1 524",
        "Satellite Number": 524,
        "Semi-Major Axis(m)": 6980739.136638005,
        "Time(s)": 0
    },
    {
        "Altitude(m)": 622058.3047056792,
        "Argument of Periapsis(deg)": 0.00010418945913296404,
        "Eccentricity": 0.0,
        "Inclination(deg)": 60.0,
        "Latitude(deg)": -51.799369754306795,
        "Longitude(deg)": -31.871078553682466,
        "Mean Anomaly(deg)": -64.8343938545381,
        "RAAN(deg)": 114.99957995086024,
        "Satellite Name": "Test1 524",
        "Satellite Number": 524,
        "Semi-Major Axis(m)": 6980739.136638005,
        "Time(s)": 10
    }
]